[{"OBJECT_NAME":"STARLINK-5480","OBJECT_ID":"2023-021AN","EPOCH":"2026-03-09T22:00:01.999584","MEAN_MOTION":14.98352472,"ECCENTRICITY":0.0003256,"INCLINATION":70.001,"RA_OF_ASC_NODE":163.9699,"ARG_OF_PERICENTER":271.3412,"MEAN_ANOMALY":188.798,"EPHEMERIS_TYPE":0,"CLASSIFICATION_TYPE":"U","NORAD_CAT_ID":55664,"ELEMENT_SET_NO":999,"REV_AT_EPOCH":576,"BSTAR":-0.0037639134,"MEAN_MOTION_DOT":-0.00044745,"MEAN_MOTION_DDOT":0},{"OBJECT_NAME":"COSMOS 2581","OBJECT_ID":"2025-026A","EPOCH":"2026-03-09T19:42:28.866816","MEAN_MOTION":14.94736104,"ECCENTRICITY":0.0010574,"INCLINATION":81.9986,"RA_OF_ASC_NODE":175.8565,"ARG_OF_PERICENTER":32.7244,"MEAN_ANOMALY":327.4629,"EPHEMERIS_TYPE":0,"CLASSIFICATION_TYPE":"U","NORAD_CAT_ID":62902,"ELEMENT_SET_NO":999,"REV_AT_EPOCH":5937,"BSTAR":0.00021137,"MEAN_MOTION_DOT":2.32e-5,"MEAN_MOTION_DDOT":0}]
